NETSAT-2                
1 46507U 20068X   26063.48079127  .00035694  00000+0  85700-3 0  9992
2 46507  97.8651  63.1858 0005236  36.2476 323.9124 15.41265842299580
WILDTRACKCUBE-SIMBA     
1 47941U 21022K   26063.88094338  .03070808  24537-5  12257-2 0  9993
2 47941  97.3793 345.8568 0005381 139.9164 220.2525 16.23643125275076
GREENCUBE (IO-117)      
1 53109U 22080E   26063.75225615 -.00000003  00000+0  00000+0 0  9992
2 53109  70.1624 334.5702 0009068 312.4506  47.5387  6.42583119 85352
SITRO-AIS 5 (KATYS)     
1 57176U 23091L   26063.83082377  .00017522  00000+0  66332-3 0  9995
2 57176  97.5189 126.8684 0013437 110.5613 249.7068 15.26907447148405
SITRO-AIS 6 (CHIRKIN)   
1 57192U 23091AC  26063.85634427  .00011103  00000+0  45553-3 0  9995
2 57192  97.5193 126.5088 0014168 110.6582 249.6176 15.24320074148380
SITRO-AIS 8 (ANOKHIN)   
1 57193U 23091AD  26063.88556216  .00019467  00000+0  68788-3 0  9994
2 57193  97.5179 128.1241 0012653 108.1893 252.0725 15.29163001148498
SITRO-AIS 7 (FARTUSHNIY)
1 57194U 23091AE  26063.84009644  .00009466  00000+0  39173-3 0  9993
2 57194  97.5193 126.3657 0014033 111.5624 248.7110 15.24075496148372
SITRO-AIS 10 (BURDAEV)  
1 57199U 23091AK  26063.86233209  .00028397  00000+0  84905-3 0  9993
2 57199  97.5195 132.1770 0008449  90.1784 270.0427 15.34501196148745
SITRO-AIS 9 (SHCHUKIN)  
1 57201U 23091AM  26063.85938543  .00026939  00000+0  81505-3 0  9992
2 57201  97.5193 131.9759 0008629  89.8465 270.3766 15.34135297148735
SITRO-AIS 12 (SMIRENNIY)
1 57204U 23091AQ  26063.86845948  .00024023  00000+0  72190-3 0  9994
2 57204  97.5204 132.3917 0008306  85.4296 274.7895 15.34377280148751
SITRO-AIS 11 (SHEFFER)  
1 57208U 23091AU  26063.84271557  .00027156  00000+0  80677-3 0  9994
2 57208  97.5202 132.5529 0008178  85.3000 274.9177 15.34715030148768
SITRO-AIS 25            
1 59066U 24039R   26063.82609302  .00005646  00000+0  44885-3 0  9993
2 59066  95.3946 163.4095 0145871 333.5061  25.8757 14.92581706109152
SITRO-AIS 26            
1 59067U 24039S   26063.88093009  .00005682  00000+0  45359-3 0  9998
2 59067  95.3944 163.3651 0146197 333.7576  25.6290 14.92394971109159
SITRO-AIS 27            
1 59068U 24039T   26063.87954867  .00005641  00000+0  44667-3 0  9992
2 59068  95.3945 163.5894 0145278 332.5871  26.7740 14.92789096109176
SITRO-AIS 28            
1 59071U 24039U   26063.85939801  .00005213  00000+0  41265-3 0  9991
2 59071  95.3944 163.6174 0145258 332.4819  26.8767 14.92821344109173
GRBBETA                 
1 60237U 24128C   26063.52740679  .00008048  00000+0  55120-3 0  9997
2 60237  61.9892 223.2246 0051948 113.1459 247.5120 15.05714089 90502
